<?xml version="1.0" encoding="UTF-8"?>
<ndm xmlns:xsi="http://www.w3.org/2001/XMLSchema-instance" xsi:noNamespaceSchemaLocation="https://sanaregistry.org/r/ndmxml_unqualified/ndmxml-2.0.0-master-2.0.xsd">
<omm id="CCSDS_OMM_VERS" version="2.0">
<header><CREATION_DATE/><ORIGINATOR/></header><body><segment><metadata><OBJECT_NAME>KUIPER-00008</OBJECT_NAME><OBJECT_ID>2025-088A</OBJECT_ID><CENTER_NAME>EARTH</CENTER_NAME><REF_FRAME>TEME</REF_FRAME><TIME_SYSTEM>UTC</TIME_SYSTEM><MEAN_ELEMENT_THEORY>SGP4</MEAN_ELEMENT_THEORY></metadata><data><meanElements><EPOCH>2025-08-05T01:42:15.043680</EPOCH><MEAN_MOTION>14.98691251</MEAN_MOTION><ECCENTRICITY>.0011705</ECCENTRICITY><INCLINATION>51.8915</INCLINATION><RA_OF_ASC_NODE>354.5085</RA_OF_ASC_NODE><ARG_OF_PERICENTER>91.8406</ARG_OF_PERICENTER><MEAN_ANOMALY>268.3905</MEAN_ANOMALY></meanElements><tleParameters><EPHEMERIS_TYPE>0</EPHEMERIS_TYPE><CLASSIFICATION_TYPE>U</CLASSIFICATION_TYPE><NORAD_CAT_ID>63724</NORAD_CAT_ID><ELEMENT_SET_NO>999</ELEMENT_SET_NO><REV_AT_EPOCH>1556</REV_AT_EPOCH><BSTAR>.3942E-3</BSTAR><MEAN_MOTION_DOT>.4534E-4</MEAN_MOTION_DOT><MEAN_MOTION_DDOT>0</MEAN_MOTION_DDOT></tleParameters></data></segment></body></omm>
<omm id="CCSDS_OMM_VERS" version="2.0">
<header><CREATION_DATE/><ORIGINATOR/></header><body><segment><metadata><OBJECT_NAME>KUIPER-00009</OBJECT_NAME><OBJECT_ID>2025-088B</OBJECT_ID><CENTER_NAME>EARTH</CENTER_NAME><REF_FRAME>TEME</REF_FRAME><TIME_SYSTEM>UTC</TIME_SYSTEM><MEAN_ELEMENT_THEORY>SGP4</MEAN_ELEMENT_THEORY></metadata><data><meanElements><EPOCH>2025-08-05T08:52:31.765440</EPOCH><MEAN_MOTION>15.11814392</MEAN_MOTION><ECCENTRICITY>.0011548</ECCENTRICITY><INCLINATION>51.8844</INCLINATION><RA_OF_ASC_NODE>346.2400</RA_OF_ASC_NODE><ARG_OF_PERICENTER>115.8335</ARG_OF_PERICENTER><MEAN_ANOMALY>244.3834</MEAN_ANOMALY></meanElements><tleParameters><EPHEMERIS_TYPE>0</EPHEMERIS_TYPE><CLASSIFICATION_TYPE>U</CLASSIFICATION_TYPE><NORAD_CAT_ID>63725</NORAD_CAT_ID><ELEMENT_SET_NO>999</ELEMENT_SET_NO><REV_AT_EPOCH>1570</REV_AT_EPOCH><BSTAR>.18599E-3</BSTAR><MEAN_MOTION_DOT>.292E-4</MEAN_MOTION_DOT><MEAN_MOTION_DDOT>0</MEAN_MOTION_DDOT></tleParameters></data></segment></body></omm>
<omm id="CCSDS_OMM_VERS" version="2.0">
<header><CREATION_DATE/><ORIGINATOR/></header><body><segment><metadata><OBJECT_NAME>KUIPER-00010</OBJECT_NAME><OBJECT_ID>2025-088C</OBJECT_ID><CENTER_NAME>EARTH</CENTER_NAME><REF_FRAME>TEME</REF_FRAME><TIME_SYSTEM>UTC</TIME_SYSTEM><MEAN_ELEMENT_THEORY>SGP4</MEAN_ELEMENT_THEORY></metadata><data><meanElements><EPOCH>2025-08-05T12:12:43.916832</EPOCH><MEAN_MOTION>15.36281929</MEAN_MOTION><ECCENTRICITY>.0009439</ECCENTRICITY><INCLINATION>51.8639</INCLINATION><RA_OF_ASC_NODE>342.7824</RA_OF_ASC_NODE><ARG_OF_PERICENTER>106.2416</ARG_OF_PERICENTER><MEAN_ANOMALY>253.9609</MEAN_ANOMALY></meanElements><tleParameters><EPHEMERIS_TYPE>0</EPHEMERIS_TYPE><CLASSIFICATION_TYPE>U</CLASSIFICATION_TYPE><NORAD_CAT_ID>63726</NORAD_CAT_ID><ELEMENT_SET_NO>999</ELEMENT_SET_NO><REV_AT_EPOCH>1538</REV_AT_EPOCH><BSTAR>.36036E-3</BSTAR><MEAN_MOTION_DOT>.12592E-3</MEAN_MOTION_DOT><MEAN_MOTION_DDOT>0</MEAN_MOTION_DDOT></tleParameters></data></segment></body></omm>
<omm id="CCSDS_OMM_VERS" version="2.0">
<header><CREATION_DATE/><ORIGINATOR/></header><body><segment><metadata><OBJECT_NAME>KUIPER-00011</OBJECT_NAME><OBJECT_ID>2025-088D</OBJECT_ID><CENTER_NAME>EARTH</CENTER_NAME><REF_FRAME>TEME</REF_FRAME><TIME_SYSTEM>UTC</TIME_SYSTEM><MEAN_ELEMENT_THEORY>SGP4</MEAN_ELEMENT_THEORY></metadata><data><meanElements><EPOCH>2025-08-05T08:14:56.624352</EPOCH><MEAN_MOTION>15.35777205</MEAN_MOTION><ECCENTRICITY>.0010803</ECCENTRICITY><INCLINATION>51.8592</INCLINATION><RA_OF_ASC_NODE>343.8549</RA_OF_ASC_NODE><ARG_OF_PERICENTER>114.2632</ARG_OF_PERICENTER><MEAN_ANOMALY>245.9483</MEAN_ANOMALY></meanElements><tleParameters><EPHEMERIS_TYPE>0</EPHEMERIS_TYPE><CLASSIFICATION_TYPE>U</CLASSIFICATION_TYPE><NORAD_CAT_ID>63727</NORAD_CAT_ID><ELEMENT_SET_NO>999</ELEMENT_SET_NO><REV_AT_EPOCH>1549</REV_AT_EPOCH><BSTAR>.46176E-3</BSTAR><MEAN_MOTION_DOT>.15993E-3</MEAN_MOTION_DOT><MEAN_MOTION_DDOT>0</MEAN_MOTION_DDOT></tleParameters></data></segment></body></omm>
<omm id="CCSDS_OMM_VERS" version="2.0">
<header><CREATION_DATE/><ORIGINATOR/></header><body><segment><metadata><OBJECT_NAME>KUIPER-00012</OBJECT_NAME><OBJECT_ID>2025-088E</OBJECT_ID><CENTER_NAME>EARTH</CENTER_NAME><REF_FRAME>TEME</REF_FRAME><TIME_SYSTEM>UTC</TIME_SYSTEM><MEAN_ELEMENT_THEORY>SGP4</MEAN_ELEMENT_THEORY></metadata><data><meanElements><EPOCH>2025-08-05T08:11:04.424352</EPOCH><MEAN_MOTION>15.35909928</MEAN_MOTION><ECCENTRICITY>.0011044</ECCENTRICITY><INCLINATION>51.8573</INCLINATION><RA_OF_ASC_NODE>343.8244</RA_OF_ASC_NODE><ARG_OF_PERICENTER>115.3003</ARG_OF_PERICENTER><MEAN_ANOMALY>244.9128</MEAN_ANOMALY></meanElements><tleParameters><EPHEMERIS_TYPE>0</EPHEMERIS_TYPE><CLASSIFICATION_TYPE>U</CLASSIFICATION_TYPE><NORAD_CAT_ID>63728</NORAD_CAT_ID><ELEMENT_SET_NO>999</ELEMENT_SET_NO><REV_AT_EPOCH>1544</REV_AT_EPOCH><BSTAR>.3704E-3</BSTAR><MEAN_MOTION_DOT>.12803E-3</MEAN_MOTION_DOT><MEAN_MOTION_DDOT>0</MEAN_MOTION_DDOT></tleParameters></data></segment></body></omm>
<omm id="CCSDS_OMM_VERS" version="2.0">
<header><CREATION_DATE/><ORIGINATOR/></header><body><segment><metadata><OBJECT_NAME>KUIPER-00013</OBJECT_NAME><OBJECT_ID>2025-088F</OBJECT_ID><CENTER_NAME>EARTH</CENTER_NAME><REF_FRAME>TEME</REF_FRAME><TIME_SYSTEM>UTC</TIME_SYSTEM><MEAN_ELEMENT_THEORY>SGP4</MEAN_ELEMENT_THEORY></metadata><data><meanElements><EPOCH>2025-08-05T14:00:01.999872</EPOCH><MEAN_MOTION>15.11112278</MEAN_MOTION><ECCENTRICITY>.0006863</ECCENTRICITY><INCLINATION>51.8921</INCLINATION><RA_OF_ASC_NODE>345.8569</RA_OF_ASC_NODE><ARG_OF_PERICENTER>68.2239</ARG_OF_PERICENTER><MEAN_ANOMALY>78.6697</MEAN_ANOMALY></meanElements><tleParameters><EPHEMERIS_TYPE>0</EPHEMERIS_TYPE><CLASSIFICATION_TYPE>U</CLASSIFICATION_TYPE><NORAD_CAT_ID>63729</NORAD_CAT_ID><ELEMENT_SET_NO>999</ELEMENT_SET_NO><REV_AT_EPOCH>590</REV_AT_EPOCH><BSTAR>-.63233E-1</BSTAR><MEAN_MOTION_DOT>-.987481E-2</MEAN_MOTION_DOT><MEAN_MOTION_DDOT>0</MEAN_MOTION_DDOT></tleParameters></data></segment></body></omm>
<omm id="CCSDS_OMM_VERS" version="2.0">
<header><CREATION_DATE/><ORIGINATOR/></header><body><segment><metadata><OBJECT_NAME>KUIPER-00014</OBJECT_NAME><OBJECT_ID>2025-088G</OBJECT_ID><CENTER_NAME>EARTH</CENTER_NAME><REF_FRAME>TEME</REF_FRAME><TIME_SYSTEM>UTC</TIME_SYSTEM><MEAN_ELEMENT_THEORY>SGP4</MEAN_ELEMENT_THEORY></metadata><data><meanElements><EPOCH>2025-08-05T07:27:07.603488</EPOCH><MEAN_MOTION>15.12155640</MEAN_MOTION><ECCENTRICITY>.0008083</ECCENTRICITY><INCLINATION>51.8803</INCLINATION><RA_OF_ASC_NODE>348.1565</RA_OF_ASC_NODE><ARG_OF_PERICENTER>127.3892</ARG_OF_PERICENTER><MEAN_ANOMALY>232.7821</MEAN_ANOMALY></meanElements><tleParameters><EPHEMERIS_TYPE>0</EPHEMERIS_TYPE><CLASSIFICATION_TYPE>U</CLASSIFICATION_TYPE><NORAD_CAT_ID>63730</NORAD_CAT_ID><ELEMENT_SET_NO>999</ELEMENT_SET_NO><REV_AT_EPOCH>1529</REV_AT_EPOCH><BSTAR>-.14803E-2</BSTAR><MEAN_MOTION_DOT>-.26069E-3</MEAN_MOTION_DOT><MEAN_MOTION_DDOT>0</MEAN_MOTION_DDOT></tleParameters></data></segment></body></omm>
<omm id="CCSDS_OMM_VERS" version="2.0">
<header><CREATION_DATE/><ORIGINATOR/></header><body><segment><metadata><OBJECT_NAME>KUIPER-00015</OBJECT_NAME><OBJECT_ID>2025-088H</OBJECT_ID><CENTER_NAME>EARTH</CENTER_NAME><REF_FRAME>TEME</REF_FRAME><TIME_SYSTEM>UTC</TIME_SYSTEM><MEAN_ELEMENT_THEORY>SGP4</MEAN_ELEMENT_THEORY></metadata><data><meanElements><EPOCH>2025-08-05T09:18:32.302368</EPOCH><MEAN_MOTION>14.81116264</MEAN_MOTION><ECCENTRICITY>.0011595</ECCENTRICITY><INCLINATION>51.9005</INCLINATION><RA_OF_ASC_NODE>357.9402</RA_OF_ASC_NODE><ARG_OF_PERICENTER>86.6230</ARG_OF_PERICENTER><MEAN_ANOMALY>273.6059</MEAN_ANOMALY></meanElements><tleParameters><EPHEMERIS_TYPE>0</EPHEMERIS_TYPE><CLASSIFICATION_TYPE>U</CLASSIFICATION_TYPE><NORAD_CAT_ID>63731</NORAD_CAT_ID><ELEMENT_SET_NO>999</ELEMENT_SET_NO><REV_AT_EPOCH>1562</REV_AT_EPOCH><BSTAR>.75297E-4</BSTAR><MEAN_MOTION_DOT>.364E-5</MEAN_MOTION_DOT><MEAN_MOTION_DDOT>0</MEAN_MOTION_DDOT></tleParameters></data></segment></body></omm>

</ndm>
