KUIPER-00008            
1 63724U 25088A   25217.07100745  .00004534  00000+0  39420-3 0  9992
2 63724  51.8915 354.5085 0011705  91.8406 268.3905 14.98691251 15561
KUIPER-00009            
1 63725U 25088B   25217.36981210  .00002920  00000+0  18599-3 0  9990
2 63725  51.8844 346.2400 0011548 115.8335 244.3834 15.11814392 15705
KUIPER-00010            
1 63726U 25088C   25217.50884163  .00012592  00000+0  36036-3 0  9998
2 63726  51.8639 342.7824 0009439 106.2416 253.9609 15.36281929 15380
KUIPER-00011            
1 63727U 25088D   25217.34371093  .00015993  00000+0  46176-3 0  9998
2 63727  51.8592 343.8549 0010803 114.2632 245.9483 15.35777205 15490
KUIPER-00012            
1 63728U 25088E   25217.34102343  .00012803  00000+0  37040-3 0  9996
2 63728  51.8573 343.8244 0011044 115.3003 244.9128 15.35909928 15443
KUIPER-00013            
1 63729U 25088F   25217.58335648 -.00987481  00000+0 -63233-1 0  9995
2 63729  51.8921 345.8569 0006863  68.2239  78.6697 15.11112278  5904
KUIPER-00014            
1 63730U 25088G   25217.31050467 -.00026069  00000+0 -14803-2 0  9997
2 63730  51.8803 348.1565 0008083 127.3892 232.7821 15.12155640 15291
KUIPER-00015            
1 63731U 25088H   25217.38787387  .00000364  00000+0  75297-4 0  9997
2 63731  51.9005 357.9402 0011595  86.6230 273.6059 14.81116264 15628
